[{"OBJECT_NAME":"STARLINK-35123","OBJECT_ID":"2025-210N","EPOCH":"2026-03-09T22:00:16.782624","MEAN_MOTION":15.30197912,"ECCENTRICITY":7.525e-5,"INCLINATION":53.1606,"RA_OF_ASC_NODE":306.1779,"ARG_OF_PERICENTER":130.4515,"MEAN_ANOMALY":229.6551,"EPHEMERIS_TYPE":0,"CLASSIFICATION_TYPE":"U","NORAD_CAT_ID":65634,"ELEMENT_SET_NO":999,"REV_AT_EPOCH":2776,"BSTAR":0.0013000146,"MEAN_MOTION_DOT":0.0003834,"MEAN_MOTION_DDOT":0},{"OBJECT_NAME":"NOAA 17 DEB","OBJECT_ID":"2002-032AF","EPOCH":"2026-03-09T00:24:06.552000","MEAN_MOTION":15.25501717,"ECCENTRICITY":0.00030847,"INCLINATION":98.6472,"RA_OF_ASC_NODE":92.5947,"ARG_OF_PERICENTER":165.9893,"MEAN_ANOMALY":194.1428,"EPHEMERIS_TYPE":0,"CLASSIFICATION_TYPE":"U","NORAD_CAT_ID":48614,"ELEMENT_SET_NO":999,"REV_AT_EPOCH":26420,"BSTAR":0.01090047,"MEAN_MOTION_DOT":0.00286783,"MEAN_MOTION_DDOT":0}]
